<?xml version="1.0" encoding="UTF-8"?>
<ndm xmlns:xsi="http://www.w3.org/2001/XMLSchema-instance" xsi:noNamespaceSchemaLocation="https://sanaregistry.org/r/ndmxml_unqualified/ndmxml-2.0.0-master-2.0.xsd">
<omm id="CCSDS_OMM_VERS" version="2.0">
<header><CREATION_DATE/><ORIGINATOR/></header><body><segment><metadata><OBJECT_NAME>KUIPER-00157</OBJECT_NAME><OBJECT_ID>2025-228Z</OBJECT_ID><CENTER_NAME>EARTH</CENTER_NAME><REF_FRAME>TEME</REF_FRAME><TIME_SYSTEM>UTC</TIME_SYSTEM><MEAN_ELEMENT_THEORY>SGP4</MEAN_ELEMENT_THEORY></metadata><data><meanElements><EPOCH>2026-01-14T00:00:02.000160</EPOCH><MEAN_MOTION>15.27628722</MEAN_MOTION><ECCENTRICITY>.00061149</ECCENTRICITY><INCLINATION>51.8807</INCLINATION><RA_OF_ASC_NODE>225.2193</RA_OF_ASC_NODE><ARG_OF_PERICENTER>150.7579</ARG_OF_PERICENTER><MEAN_ANOMALY>95.7250</MEAN_ANOMALY></meanElements><tleParameters><EPHEMERIS_TYPE>0</EPHEMERIS_TYPE><CLASSIFICATION_TYPE>U</CLASSIFICATION_TYPE><NORAD_CAT_ID>65970</NORAD_CAT_ID><ELEMENT_SET_NO>999</ELEMENT_SET_NO><REV_AT_EPOCH>549</REV_AT_EPOCH><BSTAR>-.75242958E-1</BSTAR><MEAN_MOTION_DOT>-.1849272E-1</MEAN_MOTION_DOT><MEAN_MOTION_DDOT>0</MEAN_MOTION_DDOT></tleParameters></data></segment></body></omm>
<omm id="CCSDS_OMM_VERS" version="2.0">
<header><CREATION_DATE/><ORIGINATOR/></header><body><segment><metadata><OBJECT_NAME>KUIPER-00144</OBJECT_NAME><OBJECT_ID>2025-301A</OBJECT_ID><CENTER_NAME>EARTH</CENTER_NAME><REF_FRAME>TEME</REF_FRAME><TIME_SYSTEM>UTC</TIME_SYSTEM><MEAN_ELEMENT_THEORY>SGP4</MEAN_ELEMENT_THEORY></metadata><data><meanElements><EPOCH>2026-01-13T14:14:28.610016</EPOCH><MEAN_MOTION>15.36190122</MEAN_MOTION><ECCENTRICITY>.00063016</ECCENTRICITY><INCLINATION>51.8715</INCLINATION><RA_OF_ASC_NODE>331.4843</RA_OF_ASC_NODE><ARG_OF_PERICENTER>175.8289</ARG_OF_PERICENTER><MEAN_ANOMALY>184.2751</MEAN_ANOMALY></meanElements><tleParameters><EPHEMERIS_TYPE>0</EPHEMERIS_TYPE><CLASSIFICATION_TYPE>U</CLASSIFICATION_TYPE><NORAD_CAT_ID>67133</NORAD_CAT_ID><ELEMENT_SET_NO>999</ELEMENT_SET_NO><REV_AT_EPOCH>526</REV_AT_EPOCH><BSTAR>.43803622E-3</BSTAR><MEAN_MOTION_DOT>.15339E-3</MEAN_MOTION_DOT><MEAN_MOTION_DDOT>0</MEAN_MOTION_DDOT></tleParameters></data></segment></body></omm>
<omm id="CCSDS_OMM_VERS" version="2.0">
<header><CREATION_DATE/><ORIGINATOR/></header><body><segment><metadata><OBJECT_NAME>KUIPER-00164</OBJECT_NAME><OBJECT_ID>2025-301B</OBJECT_ID><CENTER_NAME>EARTH</CENTER_NAME><REF_FRAME>TEME</REF_FRAME><TIME_SYSTEM>UTC</TIME_SYSTEM><MEAN_ELEMENT_THEORY>SGP4</MEAN_ELEMENT_THEORY></metadata><data><meanElements><EPOCH>2026-01-13T13:57:21.208608</EPOCH><MEAN_MOTION>15.36682942</MEAN_MOTION><ECCENTRICITY>.00029756</ECCENTRICITY><INCLINATION>51.8725</INCLINATION><RA_OF_ASC_NODE>331.4101</RA_OF_ASC_NODE><ARG_OF_PERICENTER>158.9692</ARG_OF_PERICENTER><MEAN_ANOMALY>201.1417</MEAN_ANOMALY></meanElements><tleParameters><EPHEMERIS_TYPE>0</EPHEMERIS_TYPE><CLASSIFICATION_TYPE>U</CLASSIFICATION_TYPE><NORAD_CAT_ID>67134</NORAD_CAT_ID><ELEMENT_SET_NO>999</ELEMENT_SET_NO><REV_AT_EPOCH>544</REV_AT_EPOCH><BSTAR>.27392551E-3</BSTAR><MEAN_MOTION_DOT>.9592E-4</MEAN_MOTION_DOT><MEAN_MOTION_DDOT>0</MEAN_MOTION_DDOT></tleParameters></data></segment></body></omm>
<omm id="CCSDS_OMM_VERS" version="2.0">
<header><CREATION_DATE/><ORIGINATOR/></header><body><segment><metadata><OBJECT_NAME>KUIPER-00175</OBJECT_NAME><OBJECT_ID>2025-301C</OBJECT_ID><CENTER_NAME>EARTH</CENTER_NAME><REF_FRAME>TEME</REF_FRAME><TIME_SYSTEM>UTC</TIME_SYSTEM><MEAN_ELEMENT_THEORY>SGP4</MEAN_ELEMENT_THEORY></metadata><data><meanElements><EPOCH>2026-01-13T21:31:49.959264</EPOCH><MEAN_MOTION>15.37255074</MEAN_MOTION><ECCENTRICITY>.00037268</ECCENTRICITY><INCLINATION>51.8742</INCLINATION><RA_OF_ASC_NODE>329.7749</RA_OF_ASC_NODE><ARG_OF_PERICENTER>99.0268</ARG_OF_PERICENTER><MEAN_ANOMALY>261.1140</MEAN_ANOMALY></meanElements><tleParameters><EPHEMERIS_TYPE>0</EPHEMERIS_TYPE><CLASSIFICATION_TYPE>U</CLASSIFICATION_TYPE><NORAD_CAT_ID>67135</NORAD_CAT_ID><ELEMENT_SET_NO>999</ELEMENT_SET_NO><REV_AT_EPOCH>538</REV_AT_EPOCH><BSTAR>.28079581E-3</BSTAR><MEAN_MOTION_DOT>.10031E-3</MEAN_MOTION_DOT><MEAN_MOTION_DDOT>0</MEAN_MOTION_DDOT></tleParameters></data></segment></body></omm>
<omm id="CCSDS_OMM_VERS" version="2.0">
<header><CREATION_DATE/><ORIGINATOR/></header><body><segment><metadata><OBJECT_NAME>KUIPER-00179</OBJECT_NAME><OBJECT_ID>2025-301D</OBJECT_ID><CENTER_NAME>EARTH</CENTER_NAME><REF_FRAME>TEME</REF_FRAME><TIME_SYSTEM>UTC</TIME_SYSTEM><MEAN_ELEMENT_THEORY>SGP4</MEAN_ELEMENT_THEORY></metadata><data><meanElements><EPOCH>2026-01-13T13:53:39.158880</EPOCH><MEAN_MOTION>15.36855168</MEAN_MOTION><ECCENTRICITY>.00033705</ECCENTRICITY><INCLINATION>51.8748</INCLINATION><RA_OF_ASC_NODE>331.3916</RA_OF_ASC_NODE><ARG_OF_PERICENTER>134.0012</ARG_OF_PERICENTER><MEAN_ANOMALY>226.1253</MEAN_ANOMALY></meanElements><tleParameters><EPHEMERIS_TYPE>0</EPHEMERIS_TYPE><CLASSIFICATION_TYPE>U</CLASSIFICATION_TYPE><NORAD_CAT_ID>67136</NORAD_CAT_ID><ELEMENT_SET_NO>999</ELEMENT_SET_NO><REV_AT_EPOCH>544</REV_AT_EPOCH><BSTAR>.43399544E-3</BSTAR><MEAN_MOTION_DOT>.15524E-3</MEAN_MOTION_DOT><MEAN_MOTION_DDOT>0</MEAN_MOTION_DDOT></tleParameters></data></segment></body></omm>
<omm id="CCSDS_OMM_VERS" version="2.0">
<header><CREATION_DATE/><ORIGINATOR/></header><body><segment><metadata><OBJECT_NAME>KUIPER-00181</OBJECT_NAME><OBJECT_ID>2025-301E</OBJECT_ID><CENTER_NAME>EARTH</CENTER_NAME><REF_FRAME>TEME</REF_FRAME><TIME_SYSTEM>UTC</TIME_SYSTEM><MEAN_ELEMENT_THEORY>SGP4</MEAN_ELEMENT_THEORY></metadata><data><meanElements><EPOCH>2026-01-13T20:58:52.360896</EPOCH><MEAN_MOTION>15.34891521</MEAN_MOTION><ECCENTRICITY>.00106905</ECCENTRICITY><INCLINATION>51.8639</INCLINATION><RA_OF_ASC_NODE>330.3484</RA_OF_ASC_NODE><ARG_OF_PERICENTER>203.4799</ARG_OF_PERICENTER><MEAN_ANOMALY>156.5699</MEAN_ANOMALY></meanElements><tleParameters><EPHEMERIS_TYPE>0</EPHEMERIS_TYPE><CLASSIFICATION_TYPE>U</CLASSIFICATION_TYPE><NORAD_CAT_ID>67137</NORAD_CAT_ID><ELEMENT_SET_NO>999</ELEMENT_SET_NO><REV_AT_EPOCH>546</REV_AT_EPOCH><BSTAR>.67366342E-3</BSTAR><MEAN_MOTION_DOT>.22868E-3</MEAN_MOTION_DOT><MEAN_MOTION_DDOT>0</MEAN_MOTION_DDOT></tleParameters></data></segment></body></omm>
<omm id="CCSDS_OMM_VERS" version="2.0">
<header><CREATION_DATE/><ORIGINATOR/></header><body><segment><metadata><OBJECT_NAME>KUIPER-00183</OBJECT_NAME><OBJECT_ID>2025-301F</OBJECT_ID><CENTER_NAME>EARTH</CENTER_NAME><REF_FRAME>TEME</REF_FRAME><TIME_SYSTEM>UTC</TIME_SYSTEM><MEAN_ELEMENT_THEORY>SGP4</MEAN_ELEMENT_THEORY></metadata><data><meanElements><EPOCH>2026-01-13T11:42:50.035968</EPOCH><MEAN_MOTION>15.34823823</MEAN_MOTION><ECCENTRICITY>.0011274</ECCENTRICITY><INCLINATION>51.8645</INCLINATION><RA_OF_ASC_NODE>332.2560</RA_OF_ASC_NODE><ARG_OF_PERICENTER>205.4324</ARG_OF_PERICENTER><MEAN_ANOMALY>154.6108</MEAN_ANOMALY></meanElements><tleParameters><EPHEMERIS_TYPE>0</EPHEMERIS_TYPE><CLASSIFICATION_TYPE>U</CLASSIFICATION_TYPE><NORAD_CAT_ID>67138</NORAD_CAT_ID><ELEMENT_SET_NO>999</ELEMENT_SET_NO><REV_AT_EPOCH>541</REV_AT_EPOCH><BSTAR>.61467E-3</BSTAR><MEAN_MOTION_DOT>.20785E-3</MEAN_MOTION_DOT><MEAN_MOTION_DDOT>0</MEAN_MOTION_DDOT></tleParameters></data></segment></body></omm>
<omm id="CCSDS_OMM_VERS" version="2.0">
<header><CREATION_DATE/><ORIGINATOR/></header><body><segment><metadata><OBJECT_NAME>KUIPER-00184</OBJECT_NAME><OBJECT_ID>2025-301G</OBJECT_ID><CENTER_NAME>EARTH</CENTER_NAME><REF_FRAME>TEME</REF_FRAME><TIME_SYSTEM>UTC</TIME_SYSTEM><MEAN_ELEMENT_THEORY>SGP4</MEAN_ELEMENT_THEORY></metadata><data><meanElements><EPOCH>2026-01-13T20:56:15.501696</EPOCH><MEAN_MOTION>15.35145644</MEAN_MOTION><ECCENTRICITY>.00093784</ECCENTRICITY><INCLINATION>51.8664</INCLINATION><RA_OF_ASC_NODE>330.3362</RA_OF_ASC_NODE><ARG_OF_PERICENTER>204.2009</ARG_OF_PERICENTER><MEAN_ANOMALY>155.8537</MEAN_ANOMALY></meanElements><tleParameters><EPHEMERIS_TYPE>0</EPHEMERIS_TYPE><CLASSIFICATION_TYPE>U</CLASSIFICATION_TYPE><NORAD_CAT_ID>67139</NORAD_CAT_ID><ELEMENT_SET_NO>999</ELEMENT_SET_NO><REV_AT_EPOCH>558</REV_AT_EPOCH><BSTAR>.56406852E-3</BSTAR><MEAN_MOTION_DOT>.19226E-3</MEAN_MOTION_DOT><MEAN_MOTION_DDOT>0</MEAN_MOTION_DDOT></tleParameters></data></segment></body></omm>

</ndm>
