KUIPER-00157            
1 65970U 25228Z   26014.00002315 -.01849272  00000+0 -75243-1 0  9996
2 65970  51.8807 225.2193 0006114 150.7579  95.7250 15.27628722  5496
KUIPER-00144            
1 67133U 25301A   26013.59338669  .00015339  00000+0  43804-3 0  9994
2 67133  51.8715 331.4843 0006301 175.8289 184.2751 15.36190122  5266
KUIPER-00164            
1 67134U 25301B   26013.58149547  .00009592  00000+0  27393-3 0  9998
2 67134  51.8725 331.4101 0002975 158.9692 201.1417 15.36682942  5442
KUIPER-00175            
1 67135U 25301C   26013.89710601  .00010031  00000+0  28080-3 0  9992
2 67135  51.8742 329.7749 0003726  99.0268 261.1140 15.37255074  5384
KUIPER-00179            
1 67136U 25301D   26013.57892545  .00015524  00000+0  43400-3 0  9991
2 67136  51.8748 331.3916 0003370 134.0012 226.1253 15.36855168  5440
KUIPER-00181            
1 67137U 25301E   26013.87421714  .00022868  00000+0  67366-3 0  9997
2 67137  51.8639 330.3484 0010690 203.4799 156.5699 15.34891521  5468
KUIPER-00183            
1 67138U 25301F   26013.48807912  .00020785  00000+0  61467-3 0  9995
2 67138  51.8645 332.2560 0011274 205.4324 154.6108 15.34823823  5416
KUIPER-00184            
1 67139U 25301G   26013.87240164  .00019226  00000+0  56407-3 0  9995
2 67139  51.8664 330.3362 0009378 204.2009 155.8537 15.35145644  5582
